{
  "type": "FeatureCollection",
  "features": [
    {
      "type": "Feature",
      "properties": {
        "norad_id": 43823,
        "name": "GEO-KOMPSAT-2A",
        "group": "weather",
        "lat": 0.0104727528541282,
        "lon": -65.67097413770034,
        "alt_km": 35788.03070326133,
        "timestamp": "2025-12-27T04:40:45.142820+00:00",
        "meta_object_name": "GEO-KOMPSAT-2A",
        "meta_object_id": "2018-100A",
        "meta_epoch": "2025-12-25T12:13:38.614080",
        "meta_mean_motion": 1.00268534,
        "meta_eccentricity": 2.51e-05,
        "meta_inclination": 0.0434,
        "meta_ra_of_asc_node": 172.7377,
        "meta_arg_of_pericenter": 259.9479,
        "meta_mean_anomaly": 333.2359,
        "meta_ephemeris_type": 0,
        "meta_classification_type": "U",
        "meta_norad_cat_id": 43823,
        "meta_element_set_no": 999,
        "meta_rev_at_epoch": 2588,
        "meta_bstar": 0,
        "meta_mean_motion_dot": -3.22e-06,
        "meta_mean_motion_ddot": 0,
        "tle_line1": "1 43823U 18100A   25359.50947470 -.00000322  00000+0  00000+0 0  9996",
        "tle_line2": "2 43823   0.0434 172.7377 0000251 259.9479 333.2359  1.00268534 25880"
      },
      "geometry": {
        "type": "Point",
        "coordinates": [
          -65.67097413770034,
          0.0104727528541282
        ]
      }
    },
    {
      "type": "Feature",
      "properties": {
        "norad_id": 44387,
        "name": "METEOR-M2 2",
        "group": "weather",
        "lat": -66.4659806401463,
        "lon": 2.1866345876926623,
        "alt_km": 819.3707010529915,
        "timestamp": "2025-12-27T04:40:45.142833+00:00",
        "meta_object_name": "METEOR-M2 2",
        "meta_object_id": "2019-038A",
        "meta_epoch": "2025-12-26T22:15:17.042112",
        "meta_mean_motion": 14.24297856,
        "meta_eccentricity": 0.00018512,
        "meta_inclination": 98.8991,
        "meta_ra_of_asc_node": 340.8305,
        "meta_arg_of_pericenter": 122.5244,
        "meta_mean_anomaly": 237.6113,
        "meta_ephemeris_type": 0,
        "meta_classification_type": "U",
        "meta_norad_cat_id": 44387,
        "meta_element_set_no": 999,
        "meta_rev_at_epoch": 33677,
        "meta_bstar": 0.00014171278,
        "meta_mean_motion_dot": 2.81e-06,
        "meta_mean_motion_ddot": 0,
        "tle_line1": "1 44387U 19038A   25360.92728058  .00000281  00000+0  14171-3 0  9991",
        "tle_line2": "2 44387  98.8991 340.8305 0001851 122.5244 237.6113 14.24297856336777"
      },
      "geometry": {
        "type": "Point",
        "coordinates": [
          2.1866345876926623,
          -66.4659806401463
        ]
      }
    },
    {
      "type": "Feature",
      "properties": {
        "norad_id": 47719,
        "name": "ARKTIKA-M 1",
        "group": "weather",
        "lat": 60.85529230874675,
        "lon": 147.08132203705063,
        "alt_km": 37241.9733714818,
        "timestamp": "2025-12-27T04:40:45.142849+00:00",
        "meta_object_name": "ARKTIKA-M 1",
        "meta_object_id": "2021-016A",
        "meta_epoch": "2025-12-26T00:48:12.402432",
        "meta_mean_motion": 2.00630537,
        "meta_eccentricity": 0.72108,
        "meta_inclination": 63.1768,
        "meta_ra_of_asc_node": 82.1795,
        "meta_arg_of_pericenter": 269.1716,
        "meta_mean_anomaly": 15.5344,
        "meta_ephemeris_type": 0,
        "meta_classification_type": "U",
        "meta_norad_cat_id": 47719,
        "meta_element_set_no": 999,
        "meta_rev_at_epoch": 3531,
        "meta_bstar": 0,
        "meta_mean_motion_dot": -4.1e-07,
        "meta_mean_motion_ddot": 0,
        "tle_line1": "1 47719U 21016A   25360.03347688 -.00000041  00000+0  00000+0 0  9997",
        "tle_line2": "2 47719  63.1768  82.1795 7210800 269.1716  15.5344  2.00630537 35313"
      },
      "geometry": {
        "type": "Point",
        "coordinates": [
          147.08132203705063,
          60.85529230874675
        ]
      }
    },
    {
      "type": "Feature",
      "properties": {
        "norad_id": 49008,
        "name": "FENGYUN 3E",
        "group": "weather",
        "lat": 21.26089899472851,
        "lon": -1.8902217138570483,
        "alt_km": 826.2865060176364,
        "timestamp": "2025-12-27T04:40:45.142861+00:00",
        "meta_object_name": "FENGYUN 3E",
        "meta_object_id": "2021-062A",
        "meta_epoch": "2025-12-26T23:30:15.937632",
        "meta_mean_motion": 14.19882191,
        "meta_eccentricity": 0.00010776,
        "meta_inclination": 98.7483,
        "meta_ra_of_asc_node": 1.3316,
        "meta_arg_of_pericenter": 183.8524,
        "meta_mean_anomaly": 176.2644,
        "meta_ephemeris_type": 0,
        "meta_classification_type": "U",
        "meta_norad_cat_id": 49008,
        "meta_element_set_no": 999,
        "meta_rev_at_epoch": 23214,
        "meta_bstar": 6.1731597e-05,
        "meta_mean_motion_dot": 8.7e-07,
        "meta_mean_motion_ddot": 0,
        "tle_line1": "1 49008U 21062A   25360.97935113  .00000087  00000+0  61732-4 0  9993",
        "tle_line2": "2 49008  98.7483   1.3316 0001077 183.8524 176.2644 14.19882191232148"
      },
      "geometry": {
        "type": "Point",
        "coordinates": [
          -1.8902217138570483,
          21.26089899472851
        ]
      }
    },
    {
      "type": "Feature",
      "properties": {
        "norad_id": 51850,
        "name": "GOES 18",
        "group": "weather",
        "lat": 0.010254195651269948,
        "lon": 29.11018505536798,
        "alt_km": 35786.35720042423,
        "timestamp": "2025-12-27T04:40:45.142873+00:00",
        "meta_object_name": "GOES 18",
        "meta_object_id": "2022-021A",
        "meta_epoch": "2025-12-26T22:39:19.764000",
        "meta_mean_motion": 1.00270414,
        "meta_eccentricity": 5.288e-05,
        "meta_inclination": 0.0416,
        "meta_ra_of_asc_node": 197.7486,
        "meta_arg_of_pericenter": 103.7151,
        "meta_mean_anomaly": 357.0458,
        "meta_ephemeris_type": 0,
        "meta_classification_type": "U",
        "meta_norad_cat_id": 51850,
        "meta_element_set_no": 999,
        "meta_rev_at_epoch": 486,
        "meta_bstar": 0,
        "meta_mean_motion_dot": 1.19e-06,
        "meta_mean_motion_ddot": 0,
        "tle_line1": "1 51850U 22021A   25360.94397875  .00000119  00000+0  00000+0 0  9993",
        "tle_line2": "2 51850   0.0416 197.7486 0000528 103.7151 357.0458  1.00270414  4866"
      },
      "geometry": {
        "type": "Point",
        "coordinates": [
          29.11018505536798,
          0.010254195651269948
        ]
      }
    },
    {
      "type": "Feature",
      "properties": {
        "norad_id": 54234,
        "name": "NOAA 21 (JPSS-2)",
        "group": "weather",
        "lat": 9.374435493581396,
        "lon": -64.13254126839355,
        "alt_km": 827.442804579141,
        "timestamp": "2025-12-27T04:40:45.142884+00:00",
        "meta_object_name": "NOAA 21 (JPSS-2)",
        "meta_object_id": "2022-150A",
        "meta_epoch": "2025-12-26T21:52:04.966176",
        "meta_mean_motion": 14.19528134,
        "meta_eccentricity": 0.00015543,
        "meta_inclination": 98.7479,
        "meta_ra_of_asc_node": 297.0438,
        "meta_arg_of_pericenter": 8.0899,
        "meta_mean_anomaly": 352.0302,
        "meta_ephemeris_type": 0,
        "meta_classification_type": "U",
        "meta_norad_cat_id": 54234,
        "meta_element_set_no": 999,
        "meta_rev_at_epoch": 16210,
        "meta_bstar": 7.8015492e-05,
        "meta_mean_motion_dot": 1.21e-06,
        "meta_mean_motion_ddot": 0,
        "tle_line1": "1 54234U 22150A   25360.91116859  .00000121  00000+0  78015-4 0  9992",
        "tle_line2": "2 54234  98.7479 297.0438 0001554   8.0899 352.0302 14.19528134162109"
      },
      "geometry": {
        "type": "Point",
        "coordinates": [
          -64.13254126839355,
          9.374435493581396
        ]
      }
    },
    {
      "type": "Feature",
      "properties": {
        "norad_id": 54743,
        "name": "METEOSAT-12 (MTG-I1)",
        "group": "weather",
        "lat": 0.45948700197233006,
        "lon": 165.76616697754454,
        "alt_km": 35787.76806462478,
        "timestamp": "2025-12-27T04:40:45.142895+00:00",
        "meta_object_name": "METEOSAT-12 (MTG-I1)",
        "meta_object_id": "2022-170C",
        "meta_epoch": "2025-12-26T08:51:38.739168",
        "meta_mean_motion": 1.00270911,
        "meta_eccentricity": 0.0001715,
        "meta_inclination": 0.7011,
        "meta_ra_of_asc_node": 25.8801,
        "meta_arg_of_pericenter": 242.0428,
        "meta_mean_anomaly": 319.779,
        "meta_ephemeris_type": 0,
        "meta_classification_type": "U",
        "meta_norad_cat_id": 54743,
        "meta_element_set_no": 999,
        "meta_rev_at_epoch": 1124,
        "meta_bstar": 0,
        "meta_mean_motion_dot": 1.4e-07,
        "meta_mean_motion_ddot": 0,
        "tle_line1": "1 54743U 22170C   25360.36919837  .00000014  00000+0  00000+0 0  9990",
        "tle_line2": "2 54743   0.7011  25.8801 0001715 242.0428 319.7790  1.00270911 11249"
      },
      "geometry": {
        "type": "Point",
        "coordinates": [
          165.76616697754454,
          0.45948700197233006
        ]
      }
    }
  ]
}